CCSDS_OMM_VERS = 2.0
CREATION_DATE  = 
ORIGINATOR     = 

OBJECT_NAME    = STARLINK-35804
OBJECT_ID      = 2025-254Z
CENTER_NAME    = EARTH
REF_FRAME      = TEME
TIME_SYSTEM    = UTC
MEAN_ELEMENT_THEORY = SGP/SGP4

EPOCH          = 2025-11-26T04:09:44.862624
MEAN_MOTION    = 15.74266276
ECCENTRICITY   = .0000858
INCLINATION    = 53.1579
RA_OF_ASC_NODE = 357.0908
ARG_OF_PERICENTER = 127.9101
MEAN_ANOMALY   = 232.1996

EPHEMERIS_TYPE = 0
CLASSIFICATION_TYPE = U
NORAD_CAT_ID   = 66371
ELEMENT_SET_NO = 999
REV_AT_EPOCH   = 307
BSTAR          = .13218E-2
MEAN_MOTION_DOT = .198231E-2
MEAN_MOTION_DDOT = 0

CCSDS_OMM_VERS = 2.0
CREATION_DATE  = 
ORIGINATOR     = 

OBJECT_NAME    = STARLINK-35821
OBJECT_ID      = 2025-254AA
CENTER_NAME    = EARTH
REF_FRAME      = TEME
TIME_SYSTEM    = UTC
MEAN_ELEMENT_THEORY = SGP/SGP4

EPOCH          = 2025-11-26T04:10:14.312928
MEAN_MOTION    = 15.74226626
ECCENTRICITY   = .0001052
INCLINATION    = 53.1581
RA_OF_ASC_NODE = 357.0938
ARG_OF_PERICENTER = 116.5046
MEAN_ANOMALY   = 243.6082

EPHEMERIS_TYPE = 0
CLASSIFICATION_TYPE = U
NORAD_CAT_ID   = 66372
ELEMENT_SET_NO = 999
REV_AT_EPOCH   = 307
BSTAR          = .83855E-3
MEAN_MOTION_DOT = .124205E-2
MEAN_MOTION_DDOT = 0

CCSDS_OMM_VERS = 2.0
CREATION_DATE  = 
ORIGINATOR     = 

OBJECT_NAME    = STARLINK-35809
OBJECT_ID      = 2025-254AB
CENTER_NAME    = EARTH
REF_FRAME      = TEME
TIME_SYSTEM    = UTC
MEAN_ELEMENT_THEORY = SGP/SGP4

EPOCH          = 2025-11-26T02:37:50.507904
MEAN_MOTION    = 15.74257636
ECCENTRICITY   = .0001273
INCLINATION    = 53.1578
RA_OF_ASC_NODE = 357.4032
ARG_OF_PERICENTER = 44.6451
MEAN_ANOMALY   = 315.4671

EPHEMERIS_TYPE = 0
CLASSIFICATION_TYPE = U
NORAD_CAT_ID   = 66373
ELEMENT_SET_NO = 999
REV_AT_EPOCH   = 306
BSTAR          = .14123E-2
MEAN_MOTION_DOT = .212126E-2
MEAN_MOTION_DDOT = 0

CCSDS_OMM_VERS = 2.0
CREATION_DATE  = 
ORIGINATOR     = 

OBJECT_NAME    = STARLINK-35831
OBJECT_ID      = 2025-254AC
CENTER_NAME    = EARTH
REF_FRAME      = TEME
TIME_SYSTEM    = UTC
MEAN_ELEMENT_THEORY = SGP/SGP4

EPOCH          = 2025-11-26T02:37:21.012672
MEAN_MOTION    = 15.74148056
ECCENTRICITY   = .0000501
INCLINATION    = 53.1578
RA_OF_ASC_NODE = 357.4012
ARG_OF_PERICENTER = 53.3677
MEAN_ANOMALY   = 306.7388

EPHEMERIS_TYPE = 0
CLASSIFICATION_TYPE = U
NORAD_CAT_ID   = 66374
ELEMENT_SET_NO = 999
REV_AT_EPOCH   = 306
BSTAR          = .1225E-2
MEAN_MOTION_DOT = .182395E-2
MEAN_MOTION_DDOT = 0

CCSDS_OMM_VERS = 2.0
CREATION_DATE  = 
ORIGINATOR     = 

OBJECT_NAME    = STARLINK-35826
OBJECT_ID      = 2025-254AD
CENTER_NAME    = EARTH
REF_FRAME      = TEME
TIME_SYSTEM    = UTC
MEAN_ELEMENT_THEORY = SGP/SGP4

EPOCH          = 2025-11-26T04:08:17.512224
MEAN_MOTION    = 15.74248960
ECCENTRICITY   = .0001223
INCLINATION    = 53.1578
RA_OF_ASC_NODE = 357.0842
ARG_OF_PERICENTER = 116.3932
MEAN_ANOMALY   = 243.7213

EPHEMERIS_TYPE = 0
CLASSIFICATION_TYPE = U
NORAD_CAT_ID   = 66375
ELEMENT_SET_NO = 999
REV_AT_EPOCH   = 307
BSTAR          = .11947E-2
MEAN_MOTION_DOT = .178555E-2
MEAN_MOTION_DDOT = 0

CCSDS_OMM_VERS = 2.0
CREATION_DATE  = 
ORIGINATOR     = 

OBJECT_NAME    = SHIYAN-32 01
OBJECT_ID      = 2025-255A
CENTER_NAME    = EARTH
REF_FRAME      = TEME
TIME_SYSTEM    = UTC
MEAN_ELEMENT_THEORY = SGP/SGP4

EPOCH          = 2025-11-26T02:24:04.300128
MEAN_MOTION    = 15.41940361
ECCENTRICITY   = .0013202
INCLINATION    = 52.9964
RA_OF_ASC_NODE = 257.1255
ARG_OF_PERICENTER = 350.2997
MEAN_ANOMALY   = 9.7750

EPHEMERIS_TYPE = 0
CLASSIFICATION_TYPE = U
NORAD_CAT_ID   = 66376
ELEMENT_SET_NO = 999
REV_AT_EPOCH   = 278
BSTAR          = .53665E-3
MEAN_MOTION_DOT = .22906E-3
MEAN_MOTION_DDOT = 0

CCSDS_OMM_VERS = 2.0
CREATION_DATE  = 
ORIGINATOR     = 

OBJECT_NAME    = CZ-11 DEB
OBJECT_ID      = 2025-255B
CENTER_NAME    = EARTH
REF_FRAME      = TEME
TIME_SYSTEM    = UTC
MEAN_ELEMENT_THEORY = SGP/SGP4

EPOCH          = 2025-11-26T03:47:45.970080
MEAN_MOTION    = 15.42899227
ECCENTRICITY   = .0014026
INCLINATION    = 52.9963
RA_OF_ASC_NODE = 256.7759
ARG_OF_PERICENTER = 348.1314
MEAN_ANOMALY   = 11.9357

EPHEMERIS_TYPE = 0
CLASSIFICATION_TYPE = U
NORAD_CAT_ID   = 66377
ELEMENT_SET_NO = 999
REV_AT_EPOCH   = 265
BSTAR          = .99151E-3
MEAN_MOTION_DOT = .4422E-3
MEAN_MOTION_DDOT = 0

CCSDS_OMM_VERS = 2.0
CREATION_DATE  = 
ORIGINATOR     = 

OBJECT_NAME    = SHIYAN-32 02
OBJECT_ID      = 2025-255C
CENTER_NAME    = EARTH
REF_FRAME      = TEME
TIME_SYSTEM    = UTC
MEAN_ELEMENT_THEORY = SGP/SGP4

EPOCH          = 2025-11-26T03:43:17.359392
MEAN_MOTION    = 15.43215097
ECCENTRICITY   = .0013279
INCLINATION    = 52.9978
RA_OF_ASC_NODE = 256.7575
ARG_OF_PERICENTER = 352.5923
MEAN_ANOMALY   = 7.4883

EPHEMERIS_TYPE = 0
CLASSIFICATION_TYPE = U
NORAD_CAT_ID   = 66378
ELEMENT_SET_NO = 999
REV_AT_EPOCH   = 265
BSTAR          = .10065E-2
MEAN_MOTION_DOT = .45369E-3
MEAN_MOTION_DDOT = 0

CCSDS_OMM_VERS = 2.0
CREATION_DATE  = 
ORIGINATOR     = 

OBJECT_NAME    = SHIYAN-32 03
OBJECT_ID      = 2025-255D
CENTER_NAME    = EARTH
REF_FRAME      = TEME
TIME_SYSTEM    = UTC
MEAN_ELEMENT_THEORY = SGP/SGP4

EPOCH          = 2025-11-26T02:18:19.317024
MEAN_MOTION    = 15.42294355
ECCENTRICITY   = .0015188
INCLINATION    = 52.9969
RA_OF_ASC_NODE = 257.1014
ARG_OF_PERICENTER = 351.1897
MEAN_ANOMALY   = 8.8838

EPHEMERIS_TYPE = 0
CLASSIFICATION_TYPE = U
NORAD_CAT_ID   = 66379
ELEMENT_SET_NO = 999
REV_AT_EPOCH   = 266
BSTAR          = .55001E-3
MEAN_MOTION_DOT = .23795E-3
MEAN_MOTION_DDOT = 0

CCSDS_OMM_VERS = 2.0
CREATION_DATE  = 
ORIGINATOR     = 

OBJECT_NAME    = STARLINK-35139
OBJECT_ID      = 2025-257A
CENTER_NAME    = EARTH
REF_FRAME      = TEME
TIME_SYSTEM    = UTC
MEAN_ELEMENT_THEORY = SGP/SGP4

EPOCH          = 2025-11-26T04:00:03.000096
MEAN_MOTION    = 15.63367841
ECCENTRICITY   = .0001423
INCLINATION    = 53.1592
RA_OF_ASC_NODE = 343.2595
ARG_OF_PERICENTER = 83.8948
MEAN_ANOMALY   = 70.6094

EPHEMERIS_TYPE = 0
CLASSIFICATION_TYPE = U
NORAD_CAT_ID   = 66380
ELEMENT_SET_NO = 999
REV_AT_EPOCH   = 377
BSTAR          = -.24691E-1
MEAN_MOTION_DOT = -.2032001E-1
MEAN_MOTION_DDOT = 0

CCSDS_OMM_VERS = 2.0
CREATION_DATE  = 
ORIGINATOR     = 

OBJECT_NAME    = STARLINK-35158
OBJECT_ID      = 2025-257B
CENTER_NAME    = EARTH
REF_FRAME      = TEME
TIME_SYSTEM    = UTC
MEAN_ELEMENT_THEORY = SGP/SGP4

EPOCH          = 2025-11-26T04:00:03.000096
MEAN_MOTION    = 15.63361861
ECCENTRICITY   = .0001511
INCLINATION    = 53.1592
RA_OF_ASC_NODE = 343.2551
ARG_OF_PERICENTER = 83.5722
MEAN_ANOMALY   = 72.8492

EPHEMERIS_TYPE = 0
CLASSIFICATION_TYPE = U
NORAD_CAT_ID   = 66381
ELEMENT_SET_NO = 999
REV_AT_EPOCH   = 383
BSTAR          = -.24565E-1
MEAN_MOTION_DOT = -.2022531E-1
MEAN_MOTION_DDOT = 0

CCSDS_OMM_VERS = 2.0
CREATION_DATE  = 
ORIGINATOR     = 

OBJECT_NAME    = STARLINK-35639
OBJECT_ID      = 2025-257C
CENTER_NAME    = EARTH
REF_FRAME      = TEME
TIME_SYSTEM    = UTC
MEAN_ELEMENT_THEORY = SGP/SGP4

EPOCH          = 2025-11-26T04:00:03.000096
MEAN_MOTION    = 15.63370589
ECCENTRICITY   = .0001462
INCLINATION    = 53.1592
RA_OF_ASC_NODE = 343.2499
ARG_OF_PERICENTER = 84.7404
MEAN_ANOMALY   = 73.5966

EPHEMERIS_TYPE = 0
CLASSIFICATION_TYPE = U
NORAD_CAT_ID   = 66382
ELEMENT_SET_NO = 999
REV_AT_EPOCH   = 383
BSTAR          = -.2474E-1
MEAN_MOTION_DOT = -.2035746E-1
MEAN_MOTION_DDOT = 0

