STARLINK-35804          
1 66371U 25254Z   25330.17343591  .00198231  00000+0  13218-2 0  9997
2 66371  53.1579 357.0908 0000858 127.9101 232.1996 15.74266276  3077
STARLINK-35821          
1 66372U 25254AA  25330.17377677  .00124205  00000+0  83855-3 0  9995
2 66372  53.1581 357.0938 0001052 116.5046 243.6082 15.74226626  3071
STARLINK-35809          
1 66373U 25254AB  25330.10961236  .00212126  00000+0  14123-2 0  9990
2 66373  53.1578 357.4032 0001273  44.6451 315.4671 15.74257636  3069
STARLINK-35831          
1 66374U 25254AC  25330.10927098  .00182395  00000+0  12250-2 0  9992
2 66374  53.1578 357.4012 0000501  53.3677 306.7388 15.74148056  3061
STARLINK-35826          
1 66375U 25254AD  25330.17242491  .00178555  00000+0  11947-2 0  9992
2 66375  53.1578 357.0842 0001223 116.3932 243.7213 15.74248960  3078
SHIYAN-32 01            
1 66376U 25255A   25330.10004977  .00022906  00000+0  53665-3 0  9994
2 66376  52.9964 257.1255 0013202 350.2997   9.7750 15.41940361  2784
CZ-11 DEB               
1 66377U 25255B   25330.15817095  .00044220  00000+0  99151-3 0  9996
2 66377  52.9963 256.7759 0014026 348.1314  11.9357 15.42899227  2651
SHIYAN-32 02            
1 66378U 25255C   25330.15506203  .00045369  00000+0  10065-2 0  9994
2 66378  52.9978 256.7575 0013279 352.5923   7.4883 15.43215097  2650
SHIYAN-32 03            
1 66379U 25255D   25330.09605691  .00023795  00000+0  55001-3 0  9998
2 66379  52.9969 257.1014 0015188 351.1897   8.8838 15.42294355  2669
STARLINK-35139          
1 66380U 25257A   25330.16670139 -.02032001  00000+0 -24691-1 0  9992
2 66380  53.1592 343.2595 0001423  83.8948  70.6094 15.63367841  3778
STARLINK-35158          
1 66381U 25257B   25330.16670139 -.02022531  00000+0 -24565-1 0  9990
2 66381  53.1592 343.2551 0001511  83.5722  72.8492 15.63361861  3835
STARLINK-35639          
1 66382U 25257C   25330.16670139 -.02035746  00000+0 -24740-1 0  9998
2 66382  53.1592 343.2499 0001462  84.7404  73.5966 15.63370589  3833
